{
  "type": "FeatureCollection",
  "features": [
    {
      "type": "Feature",
      "properties": {
        "norad_id": 24876,
        "name": "GPS BIIR-2  (PRN 13)",
        "group": "gps-ops",
        "lat": 44.144743841897125,
        "lon": 146.64222501472332,
        "alt_km": 19920.1225612759,
        "timestamp": "2025-12-19T18:58:41.846753+00:00",
        "meta_object_name": "GPS BIIR-2  (PRN 13)",
        "meta_object_id": "1997-035A",
        "meta_epoch": "2025-12-19T05:08:27.852000",
        "meta_mean_motion": 2.00563748,
        "meta_eccentricity": 0.00967886,
        "meta_inclination": 55.8984,
        "meta_ra_of_asc_node": 105.6157,
        "meta_arg_of_pericenter": 56.9687,
        "meta_mean_anomaly": 303.9293,
        "meta_ephemeris_type": 0,
        "meta_classification_type": "U",
        "meta_norad_cat_id": 24876,
        "meta_element_set_no": 999,
        "meta_rev_at_epoch": 20834,
        "meta_bstar": 0,
        "meta_mean_motion_dot": -1.6e-07,
        "meta_mean_motion_ddot": 0,
        "tle_line1": "1 24876U 97035A   25353.21421125 -.00000016  00000+0  00000+0 0  9993",
        "tle_line2": "2 24876  55.8984 105.6157 0096788  56.9687 303.9293  2.00563748208343"
      },
      "geometry": {
        "type": "Point",
        "coordinates": [
          146.64222501472332,
          44.144743841897125
        ]
      }
    },
    {
      "type": "Feature",
      "properties": {
        "norad_id": 26360,
        "name": "GPS BIIR-4  (PRN 20)",
        "group": "gps-ops",
        "lat": 25.146937383661488,
        "lon": -172.587346561308,
        "alt_km": 20185.4556972961,
        "timestamp": "2025-12-19T18:58:41.846779+00:00",
        "meta_object_name": "GPS BIIR-4  (PRN 20)",
        "meta_object_id": "2000-025A",
        "meta_epoch": "2025-12-19T04:51:32.040288",
        "meta_mean_motion": 2.00567271,
        "meta_eccentricity": 0.00388899,
        "meta_inclination": 55.049,
        "meta_ra_of_asc_node": 26.5765,
        "meta_arg_of_pericenter": 242.5944,
        "meta_mean_anomaly": 201.8395,
        "meta_ephemeris_type": 0,
        "meta_classification_type": "U",
        "meta_norad_cat_id": 26360,
        "meta_element_set_no": 999,
        "meta_rev_at_epoch": 18766,
        "meta_bstar": 0,
        "meta_mean_motion_dot": -7e-07,
        "meta_mean_motion_ddot": 0,
        "tle_line1": "1 26360U 00025A   25353.20245417 -.00000070  00000+0  00000+0 0  9993",
        "tle_line2": "2 26360  55.0490  26.5765 0038889 242.5944 201.8395  2.00567271187665"
      },
      "geometry": {
        "type": "Point",
        "coordinates": [
          -172.587346561308,
          25.146937383661488
        ]
      }
    },
    {
      "type": "Feature",
      "properties": {
        "norad_id": 26407,
        "name": "GPS BIIR-5  (PRN 22)",
        "group": "gps-ops",
        "lat": -8.295901935114975,
        "lon": -143.58393671704252,
        "alt_km": 19957.43536363511,
        "timestamp": "2025-12-19T18:58:41.846795+00:00",
        "meta_object_name": "GPS BIIR-5  (PRN 22)",
        "meta_object_id": "2000-040A",
        "meta_epoch": "2025-12-19T01:29:47.262048",
        "meta_mean_motion": 2.00568111,
        "meta_eccentricity": 0.01256711,
        "meta_inclination": 54.8893,
        "meta_ra_of_asc_node": 222.3176,
        "meta_arg_of_pericenter": 301.916,
        "meta_mean_anomaly": 241.001,
        "meta_ephemeris_type": 0,
        "meta_classification_type": "U",
        "meta_norad_cat_id": 26407,
        "meta_element_set_no": 999,
        "meta_rev_at_epoch": 18633,
        "meta_bstar": 0,
        "meta_mean_motion_dot": 7.5e-07,
        "meta_mean_motion_ddot": 0,
        "tle_line1": "1 26407U 00040A   25353.06235257  .00000075  00000+0  00000+0 0  9991",
        "tle_line2": "2 26407  54.8893 222.3176 0125671 301.9160 241.0010  2.00568111186336"
      },
      "geometry": {
        "type": "Point",
        "coordinates": [
          -143.58393671704252,
          -8.295901935114975
        ]
      }
    },
    {
      "type": "Feature",
      "properties": {
        "norad_id": 27663,
        "name": "GPS BIIR-8  (PRN 16)",
        "group": "gps-ops",
        "lat": 41.19663252400405,
        "lon": 4.172035412720559,
        "alt_km": 20066.304374735617,
        "timestamp": "2025-12-19T18:58:41.846808+00:00",
        "meta_object_name": "GPS BIIR-8  (PRN 16)",
        "meta_object_id": "2003-005A",
        "meta_epoch": "2025-12-19T06:45:51.439104",
        "meta_mean_motion": 2.00570603,
        "meta_eccentricity": 0.01476858,
        "meta_inclination": 54.9218,
        "meta_ra_of_asc_node": 222.118,
        "meta_arg_of_pericenter": 51.8908,
        "meta_mean_anomaly": 65.4619,
        "meta_ephemeris_type": 0,
        "meta_classification_type": "U",
        "meta_norad_cat_id": 27663,
        "meta_element_set_no": 999,
        "meta_rev_at_epoch": 16770,
        "meta_bstar": 0,
        "meta_mean_motion_dot": 7.6e-07,
        "meta_mean_motion_ddot": 0,
        "tle_line1": "1 27663U 03005A   25353.28184536  .00000076  00000+0  00000+0 0  9998",
        "tle_line2": "2 27663  54.9218 222.1180 0147685  51.8908  65.4619  2.00570603167708"
      },
      "geometry": {
        "type": "Point",
        "coordinates": [
          4.172035412720559,
          41.19663252400405
        ]
      }
    },
    {
      "type": "Feature",
      "properties": {
        "norad_id": 28190,
        "name": "GPS BIIR-11 (PRN 19)",
        "group": "gps-ops",
        "lat": -52.50477976490313,
        "lon": -142.952034749651,
        "alt_km": 20315.21705472893,
        "timestamp": "2025-12-19T18:58:41.846821+00:00",
        "meta_object_name": "GPS BIIR-11 (PRN 19)",
        "meta_object_id": "2004-009A",
        "meta_epoch": "2025-12-18T01:19:43.105728",
        "meta_mean_motion": 2.00560667,
        "meta_eccentricity": 0.01084092,
        "meta_inclination": 54.9808,
        "meta_ra_of_asc_node": 283.0048,
        "meta_arg_of_pericenter": 167.7197,
        "meta_mean_anomaly": 302.5438,
        "meta_ephemeris_type": 0,
        "meta_classification_type": "U",
        "meta_norad_cat_id": 28190,
        "meta_element_set_no": 999,
        "meta_rev_at_epoch": 15931,
        "meta_bstar": 0,
        "meta_mean_motion_dot": -5.1e-07,
        "meta_mean_motion_ddot": 0,
        "tle_line1": "1 28190U 04009A   25352.05536002 -.00000051  00000+0  00000+0 0  9996",
        "tle_line2": "2 28190  54.9808 283.0048 0108409 167.7197 302.5438  2.00560667159317"
      },
      "geometry": {
        "type": "Point",
        "coordinates": [
          -142.952034749651,
          -52.50477976490313
        ]
      }
    },
    {
      "type": "Feature",
      "properties": {
        "norad_id": 28474,
        "name": "GPS BIIR-13 (PRN 02)",
        "group": "gps-ops",
        "lat": -12.491488463619657,
        "lon": -36.742174670429684,
        "alt_km": 19809.909300344018,
        "timestamp": "2025-12-19T18:58:41.846834+00:00",
        "meta_object_name": "GPS BIIR-13 (PRN 02)",
        "meta_object_id": "2004-045A",
        "meta_epoch": "2025-12-19T06:56:25.037952",
        "meta_mean_motion": 2.00569921,
        "meta_eccentricity": 0.01708861,
        "meta_inclination": 55.2374,
        "meta_ra_of_asc_node": 332.1423,
        "meta_arg_of_pericenter": 309.5384,
        "meta_mean_anomaly": 31.8922,
        "meta_ephemeris_type": 0,
        "meta_classification_type": "U",
        "meta_norad_cat_id": 28474,
        "meta_element_set_no": 999,
        "meta_rev_at_epoch": 15481,
        "meta_bstar": 0,
        "meta_mean_motion_dot": -8.2e-07,
        "meta_mean_motion_ddot": 0,
        "tle_line1": "1 28474U 04045A   25353.28917868 -.00000082  00000+0  00000+0 0  9994",
        "tle_line2": "2 28474  55.2374 332.1423 0170886 309.5384  31.8922  2.00569921154811"
      },
      "geometry": {
        "type": "Point",
        "coordinates": [
          -36.742174670429684,
          -12.491488463619657
        ]
      }
    },
    {
      "type": "Feature",
      "properties": {
        "norad_id": 28874,
        "name": "GPS BIIRM-1 (PRN 17)",
        "group": "gps-ops",
        "lat": -43.45305209976797,
        "lon": -121.06397950889176,
        "alt_km": 19841.112408826135,
        "timestamp": "2025-12-19T18:58:41.846845+00:00",
        "meta_object_name": "GPS BIIRM-1 (PRN 17)",
        "meta_object_id": "2005-038A",
        "meta_epoch": "2025-12-19T02:51:41.554944",
        "meta_mean_motion": 2.00578076,
        "meta_eccentricity": 0.01314439,
        "meta_inclination": 55.0262,
        "meta_ra_of_asc_node": 280.4441,
        "meta_arg_of_pericenter": 293.6931,
        "meta_mean_anomaly": 244.1239,
        "meta_ephemeris_type": 0,
        "meta_classification_type": "U",
        "meta_norad_cat_id": 28874,
        "meta_element_set_no": 999,
        "meta_rev_at_epoch": 14822,
        "meta_bstar": 0,
        "meta_mean_motion_dot": -3.7e-07,
        "meta_mean_motion_ddot": 0,
        "tle_line1": "1 28874U 05038A   25353.11923096 -.00000037  00000+0  00000+0 0  9993",
        "tle_line2": "2 28874  55.0262 280.4441 0131443 293.6931 244.1239  2.00578076148220"
      },
      "geometry": {
        "type": "Point",
        "coordinates": [
          -121.06397950889176,
          -43.45305209976797
        ]
      }
    }
  ]
}